BIOMASS                 
1 63772U 25090A   26087.50747874  .00001618  00000+0  29371-3 0  9996
2 63772  98.0750 275.9896 0001172  90.4942 269.6396 14.67535876 48859
GOSAT-GW (IBUKI GW)     
1 64694U 25141A   26065.03170321  .00001373  00000+0  25032-3 0  9996
2 64694  98.0504   4.0681 0001432  83.7436 276.3932 14.67569112 36718
IONOSFERA-M 3           
1 64876U 25155A   26087.57991850  .00000075  00000+0  53722-4 0  9990
2 64876  98.5952  51.5482 0002483  88.8236 271.3227 14.21471000 34953
IONOSFERA-M 4           
1 64877U 25155B   26087.61487308  .00000068  00000+0  50787-4 0  9994
2 64877  98.5953  51.5006 0001870  83.3412 276.7978 14.21472803 34956
MICROCARB               
1 64899U 25156A   26087.47794196  .00000721  00000+0  12191-3 0  9991
2 64899  97.9861 166.0520 0016808 165.8090 194.3593 14.72230900 36090
CO3D 3                  
1 64900U 25156B   26083.67124353  .00016115  00000+0  48501-3 0  9992
2 64900  98.0290 163.8008 0180032 158.7023 202.1829 15.19951110 36696
CO3D 4                  
1 64901U 25156C   26087.15993388  .00005709  00000+0  26651-3 0  9991
2 64901  97.4324 167.0161 0001227 158.0019 202.1269 15.20217324 37222
CO3D 2                  
1 64902U 25156D   26087.58735400  .00005375  00000+0  25123-3 0  9990
2 64902  97.4327 167.3367 0001484  86.0986 274.0419 15.20203844 37288
CO3D 1                  
1 64903U 25156E   26087.58750498  .00005253  00000+0  24554-3 0  9997
2 64903  97.4327 167.3369 0001473  96.6759 263.4644 15.20211320 37284
SENTINEL-6B             
1 66514U 25264A   26087.58956911 -.00000035  00000+0  11106-3 0  9998
2 66514  66.0411 302.5841 0007892 270.4520  89.5591 12.80930128 16841
CSG-3                   
1 67304U 26001A   26087.59144215  .00000432  00000+0  60876-4 0  9992
2 67304  97.8883 272.3567 0001429  87.2580 272.8797 14.82148140 12528
