[{"OBJECT_NAME":"BIOMASS","OBJECT_ID":"2025-090A","EPOCH":"2026-03-28T12:10:46.163136","MEAN_MOTION":14.67535876,"ECCENTRICITY":0.00011721,"INCLINATION":98.075,"RA_OF_ASC_NODE":275.9896,"ARG_OF_PERICENTER":90.4942,"MEAN_ANOMALY":269.6396,"EPHEMERIS_TYPE":0,"CLASSIFICATION_TYPE":"U","NORAD_CAT_ID":63772,"ELEMENT_SET_NO":999,"REV_AT_EPOCH":4885,"BSTAR":0.00029370699,"MEAN_MOTION_DOT":1.618e-5,"MEAN_MOTION_DDOT":0},{"OBJECT_NAME":"GOSAT-GW (IBUKI GW)","OBJECT_ID":"2025-141A","EPOCH":"2026-03-06T00:45:39.157344","MEAN_MOTION":14.67569112,"ECCENTRICITY":0.00014325,"INCLINATION":98.0504,"RA_OF_ASC_NODE":4.0681,"ARG_OF_PERICENTER":83.7436,"MEAN_ANOMALY":276.3932,"EPHEMERIS_TYPE":0,"CLASSIFICATION_TYPE":"U","NORAD_CAT_ID":64694,"ELEMENT_SET_NO":999,"REV_AT_EPOCH":3671,"BSTAR":0.00025031569,"MEAN_MOTION_DOT":1.373e-5,"MEAN_MOTION_DDOT":0},{"OBJECT_NAME":"IONOSFERA-M 3","OBJECT_ID":"2025-155A","EPOCH":"2026-03-28T13:55:04.958400","MEAN_MOTION":14.21471,"ECCENTRICITY":0.00024835,"INCLINATION":98.5952,"RA_OF_ASC_NODE":51.5482,"ARG_OF_PERICENTER":88.8236,"MEAN_ANOMALY":271.3227,"EPHEMERIS_TYPE":0,"CLASSIFICATION_TYPE":"U","NORAD_CAT_ID":64876,"ELEMENT_SET_NO":999,"REV_AT_EPOCH":3495,"BSTAR":5.3722236e-5,"MEAN_MOTION_DOT":7.5e-7,"MEAN_MOTION_DDOT":0},{"OBJECT_NAME":"IONOSFERA-M 4","OBJECT_ID":"2025-155B","EPOCH":"2026-03-28T14:45:25.034112","MEAN_MOTION":14.21472803,"ECCENTRICITY":0.00018706,"INCLINATION":98.5953,"RA_OF_ASC_NODE":51.5006,"ARG_OF_PERICENTER":83.3412,"MEAN_ANOMALY":276.7978,"EPHEMERIS_TYPE":0,"CLASSIFICATION_TYPE":"U","NORAD_CAT_ID":64877,"ELEMENT_SET_NO":999,"REV_AT_EPOCH":3495,"BSTAR":5.0786767e-5,"MEAN_MOTION_DOT":6.8e-7,"MEAN_MOTION_DDOT":0},{"OBJECT_NAME":"MICROCARB","OBJECT_ID":"2025-156A","EPOCH":"2026-03-28T11:28:14.185344","MEAN_MOTION":14.722309,"ECCENTRICITY":0.00168083,"INCLINATION":97.9861,"RA_OF_ASC_NODE":166.052,"ARG_OF_PERICENTER":165.809,"MEAN_ANOMALY":194.3593,"EPHEMERIS_TYPE":0,"CLASSIFICATION_TYPE":"U","NORAD_CAT_ID":64899,"ELEMENT_SET_NO":999,"REV_AT_EPOCH":3609,"BSTAR":0.00012191111,"MEAN_MOTION_DOT":7.21e-6,"MEAN_MOTION_DDOT":0},{"OBJECT_NAME":"CO3D 3","OBJECT_ID":"2025-156B","EPOCH":"2026-03-24T16:06:35.440992","MEAN_MOTION":15.1995111,"ECCENTRICITY":0.0180032,"INCLINATION":98.029,"RA_OF_ASC_NODE":163.8008,"ARG_OF_PERICENTER":158.7023,"MEAN_ANOMALY":202.1829,"EPHEMERIS_TYPE":0,"CLASSIFICATION_TYPE":"U","NORAD_CAT_ID":64900,"ELEMENT_SET_NO":999,"REV_AT_EPOCH":3669,"BSTAR":0.00048501138,"MEAN_MOTION_DOT":0.00016115,"MEAN_MOTION_DDOT":0},{"OBJECT_NAME":"CO3D 4","OBJECT_ID":"2025-156C","EPOCH":"2026-03-28T03:50:18.287232","MEAN_MOTION":15.20217324,"ECCENTRICITY":0.00012278,"INCLINATION":97.4324,"RA_OF_ASC_NODE":167.0161,"ARG_OF_PERICENTER":158.0019,"MEAN_ANOMALY":202.1269,"EPHEMERIS_TYPE":0,"CLASSIFICATION_TYPE":"U","NORAD_CAT_ID":64901,"ELEMENT_SET_NO":999,"REV_AT_EPOCH":3722,"BSTAR":0.00026651089,"MEAN_MOTION_DOT":5.709e-5,"MEAN_MOTION_DDOT":0},{"OBJECT_NAME":"CO3D 2","OBJECT_ID":"2025-156D","EPOCH":"2026-03-28T14:05:47.385600","MEAN_MOTION":15.20203844,"ECCENTRICITY":0.00014849,"INCLINATION":97.4327,"RA_OF_ASC_NODE":167.3367,"ARG_OF_PERICENTER":86.0986,"MEAN_ANOMALY":274.0419,"EPHEMERIS_TYPE":0,"CLASSIFICATION_TYPE":"U","NORAD_CAT_ID":64902,"ELEMENT_SET_NO":999,"REV_AT_EPOCH":3728,"BSTAR":0.00025122509,"MEAN_MOTION_DOT":5.375e-5,"MEAN_MOTION_DDOT":0},{"OBJECT_NAME":"CO3D 1","OBJECT_ID":"2025-156E","EPOCH":"2026-03-28T14:06:00.430272","MEAN_MOTION":15.2021132,"ECCENTRICITY":0.00014738,"INCLINATION":97.4327,"RA_OF_ASC_NODE":167.3369,"ARG_OF_PERICENTER":96.6759,"MEAN_ANOMALY":263.4644,"EPHEMERIS_TYPE":0,"CLASSIFICATION_TYPE":"U","NORAD_CAT_ID":64903,"ELEMENT_SET_NO":999,"REV_AT_EPOCH":3728,"BSTAR":0.00024554391,"MEAN_MOTION_DOT":5.253e-5,"MEAN_MOTION_DDOT":0},{"OBJECT_NAME":"SENTINEL-6B","OBJECT_ID":"2025-264A","EPOCH":"2026-03-28T14:08:58.771104","MEAN_MOTION":12.80930128,"ECCENTRICITY":0.00078927,"INCLINATION":66.0411,"RA_OF_ASC_NODE":302.5841,"ARG_OF_PERICENTER":270.452,"MEAN_ANOMALY":89.5591,"EPHEMERIS_TYPE":0,"CLASSIFICATION_TYPE":"U","NORAD_CAT_ID":66514,"ELEMENT_SET_NO":999,"REV_AT_EPOCH":1684,"BSTAR":0.00011106412,"MEAN_MOTION_DOT":-3.5e-7,"MEAN_MOTION_DDOT":0},{"OBJECT_NAME":"CSG-3","OBJECT_ID":"2026-001A","EPOCH":"2026-03-28T14:11:40.601760","MEAN_MOTION":14.8214814,"ECCENTRICITY":0.00014297,"INCLINATION":97.8883,"RA_OF_ASC_NODE":272.3567,"ARG_OF_PERICENTER":87.258,"MEAN_ANOMALY":272.8797,"EPHEMERIS_TYPE":0,"CLASSIFICATION_TYPE":"U","NORAD_CAT_ID":67304,"ELEMENT_SET_NO":999,"REV_AT_EPOCH":1252,"BSTAR":6.0876115e-5,"MEAN_MOTION_DOT":4.32e-6,"MEAN_MOTION_DDOT":0}]
